[{"OBJECT_NAME":"STARLINK-6376","OBJECT_ID":"2023-099X","EPOCH":"2026-03-09T22:00:01.999584","MEAN_MOTION":15.14373336,"ECCENTRICITY":0.00016799,"INCLINATION":42.9997,"RA_OF_ASC_NODE":246.8696,"ARG_OF_PERICENTER":215.6032,"MEAN_ANOMALY":44.7192,"EPHEMERIS_TYPE":0,"CLASSIFICATION_TYPE":"U","NORAD_CAT_ID":57349,"ELEMENT_SET_NO":999,"REV_AT_EPOCH":578,"BSTAR":0.0065474134,"MEAN_MOTION_DOT":0.00124192,"MEAN_MOTION_DDOT":0},{"OBJECT_NAME":"FOSSASAT-2E22","OBJECT_ID":"2025-276DU","EPOCH":"2026-03-09T17:31:32.157120","MEAN_MOTION":15.17702542,"ECCENTRICITY":0.00067992,"INCLINATION":97.4248,"RA_OF_ASC_NODE":143.8392,"ARG_OF_PERICENTER":122.1987,"MEAN_ANOMALY":237.9907,"EPHEMERIS_TYPE":0,"CLASSIFICATION_TYPE":"U","NORAD_CAT_ID":66779,"ELEMENT_SET_NO":999,"REV_AT_EPOCH":1531,"BSTAR":0.00072006119,"MEAN_MOTION_DOT":0.00014475,"MEAN_MOTION_DDOT":0}]
